ONEWEB-0514             
1 54132U 22138V   26056.11526817 -.00000068  00000+0 -20202-3 0  9995
2 54132  87.9245 327.2849 0001766  75.2596 284.8732 13.19725807162041
ONEWEB-0515             
1 54133U 22138W   26056.15032512  .00000077  00000+0  15862-3 0  9998
2 54133  87.9189 296.7919 0002528  81.2826 278.8594 13.20771941164512
ONEWEB-0516             
1 54134U 22138X   26056.16581264  .00000092  00000+0  19854-3 0  9995
2 54134  87.9241 327.2873 0001775  83.5172 276.6163 13.19724888162054
ONEWEB-0517             
1 54135U 22138Y   26056.14528023 -.00000007  00000+0 -49731-4 0  9994
2 54135  87.9245 327.2798 0001581  70.2434 289.8869 13.19725953162057
ONEWEB-0518             
1 54136U 22138Z   26056.16422201  .00000065  00000+0  12918-3 0  9996
2 54136  87.9240 327.2891 0001623  84.4015 275.7303 13.19726838162056
ONEWEB-0519             
1 54137U 22138AA  26056.11369227 -.00000012  00000+0 -63457-4 0  9999
2 54137  87.9250 327.2777 0001594  72.7207 287.4100 13.19724734162059
ONEWEB-0520             
1 54138U 22138AB  26056.14843828  .00000075  00000+0  15515-3 0  9995
2 54138  87.9248 327.2773 0001592  87.4991 272.6324 13.19724877162045
ONEWEB-0521             
1 54139U 22138AC  26056.18160429  .00000085  00000+0  18032-3 0  9997
2 54139  87.9249 327.2546 0001708  69.4839 290.6477 13.19724777161996
ONEWEB-0522             
1 54140U 22138AD  26056.16107328  .00000060  00000+0  11758-3 0  9997
2 54140  87.9252 327.2595 0001588  82.3524 277.7789 13.19725868162037
ONEWEB-0523             
1 54141U 22138AE  26056.13769968  .00000151  00000+0  33987-3 0  9998
2 54141  87.9189 296.8093 0002264  67.3488 292.7885 13.20772159164511
ONEWEB-0524             
1 54142U 22138AF  26056.12665676  .00000056  00000+0  10509-3 0  9998
2 54142  87.9181 296.8118 0002542  87.5910 272.5514 13.20770078164518
ONEWEB-0525             
1 54143U 22138AG  26056.18002550  .00000003  00000+0 -25079-4 0  9993
2 54143  87.9245 327.2713 0001581  87.4124 272.7190 13.19724928162058
ONEWEB-0526             
1 54144U 22138AH  26056.13735928 -.00000033  00000+0 -11596-3 0  9993
2 54144  87.9253 327.2736 0001724  83.4461 276.6867 13.19723382162026
ONEWEB-0529             
1 54145U 22138AJ  26056.14053845  .00000068  00000+0  13744-3 0  9999
2 54145  87.9239 327.2929 0001662  88.1330 271.9993 13.19725852162047
ONEWEB-0531             
1 54146U 22138AK  26056.11244574  .00000070  00000+0  13991-3 0  9995
2 54146  87.9187 296.8109 0002513  73.2298 286.9111 13.20771804164517
ONEWEB-0535             
1 54147U 22138AL  26056.17371258  .00000088  00000+0  18801-3 0  9996
2 54147  87.9249 327.2609 0001939  69.1525 290.9815 13.19725463162061
ONEWEB-0536             
1 54148U 22138AM  26056.17557755  .00000103  00000+0  22051-3 0  9995
2 54148  87.9181 296.8343 0002643  75.6405 284.5022 13.20771741164518
