[{"OBJECT_NAME":"ONEWEB-0514","OBJECT_ID":"2022-138V","EPOCH":"2026-02-25T02:45:59.169888","MEAN_MOTION":13.19725807,"ECCENTRICITY":0.0001766,"INCLINATION":87.9245,"RA_OF_ASC_NODE":327.2849,"ARG_OF_PERICENTER":75.2596,"MEAN_ANOMALY":284.8732,"EPHEMERIS_TYPE":0,"CLASSIFICATION_TYPE":"U","NORAD_CAT_ID":54132,"ELEMENT_SET_NO":999,"REV_AT_EPOCH":16204,"BSTAR":-0.00020202,"MEAN_MOTION_DOT":-6.8e-7,"MEAN_MOTION_DDOT":0},{"OBJECT_NAME":"ONEWEB-0515","OBJECT_ID":"2022-138W","EPOCH":"2026-02-25T03:36:28.090368","MEAN_MOTION":13.20771941,"ECCENTRICITY":0.0002528,"INCLINATION":87.9189,"RA_OF_ASC_NODE":296.7919,"ARG_OF_PERICENTER":81.2826,"MEAN_ANOMALY":278.8594,"EPHEMERIS_TYPE":0,"CLASSIFICATION_TYPE":"U","NORAD_CAT_ID":54133,"ELEMENT_SET_NO":999,"REV_AT_EPOCH":16451,"BSTAR":0.00015862,"MEAN_MOTION_DOT":7.7e-7,"MEAN_MOTION_DDOT":0},{"OBJECT_NAME":"ONEWEB-0516","OBJECT_ID":"2022-138X","EPOCH":"2026-02-25T03:58:46.212096","MEAN_MOTION":13.19724888,"ECCENTRICITY":0.0001775,"INCLINATION":87.9241,"RA_OF_ASC_NODE":327.2873,"ARG_OF_PERICENTER":83.5172,"MEAN_ANOMALY":276.6163,"EPHEMERIS_TYPE":0,"CLASSIFICATION_TYPE":"U","NORAD_CAT_ID":54134,"ELEMENT_SET_NO":999,"REV_AT_EPOCH":16205,"BSTAR":0.00019854,"MEAN_MOTION_DOT":9.2e-7,"MEAN_MOTION_DDOT":0},{"OBJECT_NAME":"ONEWEB-0517","OBJECT_ID":"2022-138Y","EPOCH":"2026-02-25T03:29:12.211872","MEAN_MOTION":13.19725953,"ECCENTRICITY":0.0001581,"INCLINATION":87.9245,"RA_OF_ASC_NODE":327.2798,"ARG_OF_PERICENTER":70.2434,"MEAN_ANOMALY":289.8869,"EPHEMERIS_TYPE":0,"CLASSIFICATION_TYPE":"U","NORAD_CAT_ID":54135,"ELEMENT_SET_NO":999,"REV_AT_EPOCH":16205,"BSTAR":-4.9731e-5,"MEAN_MOTION_DOT":-7.0e-8,"MEAN_MOTION_DDOT":0},{"OBJECT_NAME":"ONEWEB-0518","OBJECT_ID":"2022-138Z","EPOCH":"2026-02-25T03:56:28.781664","MEAN_MOTION":13.19726838,"ECCENTRICITY":0.0001623,"INCLINATION":87.924,"RA_OF_ASC_NODE":327.2891,"ARG_OF_PERICENTER":84.4015,"MEAN_ANOMALY":275.7303,"EPHEMERIS_TYPE":0,"CLASSIFICATION_TYPE":"U","NORAD_CAT_ID":54136,"ELEMENT_SET_NO":999,"REV_AT_EPOCH":16205,"BSTAR":0.00012918,"MEAN_MOTION_DOT":6.5e-7,"MEAN_MOTION_DDOT":0},{"OBJECT_NAME":"ONEWEB-0519","OBJECT_ID":"2022-138AA","EPOCH":"2026-02-25T02:43:43.012128","MEAN_MOTION":13.19724734,"ECCENTRICITY":0.0001594,"INCLINATION":87.925,"RA_OF_ASC_NODE":327.2777,"ARG_OF_PERICENTER":72.7207,"MEAN_ANOMALY":287.41,"EPHEMERIS_TYPE":0,"CLASSIFICATION_TYPE":"U","NORAD_CAT_ID":54137,"ELEMENT_SET_NO":999,"REV_AT_EPOCH":16205,"BSTAR":-6.3457e-5,"MEAN_MOTION_DOT":-1.2e-7,"MEAN_MOTION_DDOT":0},{"OBJECT_NAME":"ONEWEB-0520","OBJECT_ID":"2022-138AB","EPOCH":"2026-02-25T03:33:45.067392","MEAN_MOTION":13.19724877,"ECCENTRICITY":0.0001592,"INCLINATION":87.9248,"RA_OF_ASC_NODE":327.2773,"ARG_OF_PERICENTER":87.4991,"MEAN_ANOMALY":272.6324,"EPHEMERIS_TYPE":0,"CLASSIFICATION_TYPE":"U","NORAD_CAT_ID":54138,"ELEMENT_SET_NO":999,"REV_AT_EPOCH":16204,"BSTAR":0.00015515,"MEAN_MOTION_DOT":7.5e-7,"MEAN_MOTION_DDOT":0},{"OBJECT_NAME":"ONEWEB-0521","OBJECT_ID":"2022-138AC","EPOCH":"2026-02-25T04:21:30.610656","MEAN_MOTION":13.19724777,"ECCENTRICITY":0.0001708,"INCLINATION":87.9249,"RA_OF_ASC_NODE":327.2546,"ARG_OF_PERICENTER":69.4839,"MEAN_ANOMALY":290.6477,"EPHEMERIS_TYPE":0,"CLASSIFICATION_TYPE":"U","NORAD_CAT_ID":54139,"ELEMENT_SET_NO":999,"REV_AT_EPOCH":16199,"BSTAR":0.00018032,"MEAN_MOTION_DOT":8.5e-7,"MEAN_MOTION_DDOT":0},{"OBJECT_NAME":"ONEWEB-0522","OBJECT_ID":"2022-138AD","EPOCH":"2026-02-25T03:51:56.731392","MEAN_MOTION":13.19725868,"ECCENTRICITY":0.0001588,"INCLINATION":87.9252,"RA_OF_ASC_NODE":327.2595,"ARG_OF_PERICENTER":82.3524,"MEAN_ANOMALY":277.7789,"EPHEMERIS_TYPE":0,"CLASSIFICATION_TYPE":"U","NORAD_CAT_ID":54140,"ELEMENT_SET_NO":999,"REV_AT_EPOCH":16203,"BSTAR":0.00011758,"MEAN_MOTION_DOT":6.0e-7,"MEAN_MOTION_DDOT":0},{"OBJECT_NAME":"ONEWEB-0523","OBJECT_ID":"2022-138AE","EPOCH":"2026-02-25T03:18:17.252352","MEAN_MOTION":13.20772159,"ECCENTRICITY":0.0002264,"INCLINATION":87.9189,"RA_OF_ASC_NODE":296.8093,"ARG_OF_PERICENTER":67.3488,"MEAN_ANOMALY":292.7885,"EPHEMERIS_TYPE":0,"CLASSIFICATION_TYPE":"U","NORAD_CAT_ID":54141,"ELEMENT_SET_NO":999,"REV_AT_EPOCH":16451,"BSTAR":0.00033987,"MEAN_MOTION_DOT":1.51e-6,"MEAN_MOTION_DDOT":0},{"OBJECT_NAME":"ONEWEB-0524","OBJECT_ID":"2022-138AF","EPOCH":"2026-02-25T03:02:23.144064","MEAN_MOTION":13.20770078,"ECCENTRICITY":0.0002542,"INCLINATION":87.9181,"RA_OF_ASC_NODE":296.8118,"ARG_OF_PERICENTER":87.591,"MEAN_ANOMALY":272.5514,"EPHEMERIS_TYPE":0,"CLASSIFICATION_TYPE":"U","NORAD_CAT_ID":54142,"ELEMENT_SET_NO":999,"REV_AT_EPOCH":16451,"BSTAR":0.00010509,"MEAN_MOTION_DOT":5.6e-7,"MEAN_MOTION_DDOT":0},{"OBJECT_NAME":"ONEWEB-0525","OBJECT_ID":"2022-138AG","EPOCH":"2026-02-25T04:19:14.203200","MEAN_MOTION":13.19724928,"ECCENTRICITY":0.0001581,"INCLINATION":87.9245,"RA_OF_ASC_NODE":327.2713,"ARG_OF_PERICENTER":87.4124,"MEAN_ANOMALY":272.719,"EPHEMERIS_TYPE":0,"CLASSIFICATION_TYPE":"U","NORAD_CAT_ID":54143,"ELEMENT_SET_NO":999,"REV_AT_EPOCH":16205,"BSTAR":-2.5079e-5,"MEAN_MOTION_DOT":3.0e-8,"MEAN_MOTION_DDOT":0},{"OBJECT_NAME":"ONEWEB-0526","OBJECT_ID":"2022-138AH","EPOCH":"2026-02-25T03:17:47.841792","MEAN_MOTION":13.19723382,"ECCENTRICITY":0.0001724,"INCLINATION":87.9253,"RA_OF_ASC_NODE":327.2736,"ARG_OF_PERICENTER":83.4461,"MEAN_ANOMALY":276.6867,"EPHEMERIS_TYPE":0,"CLASSIFICATION_TYPE":"U","NORAD_CAT_ID":54144,"ELEMENT_SET_NO":999,"REV_AT_EPOCH":16202,"BSTAR":-0.00011596,"MEAN_MOTION_DOT":-3.3e-7,"MEAN_MOTION_DDOT":0},{"OBJECT_NAME":"ONEWEB-0529","OBJECT_ID":"2022-138AJ","EPOCH":"2026-02-25T03:22:22.522080","MEAN_MOTION":13.19725852,"ECCENTRICITY":0.0001662,"INCLINATION":87.9239,"RA_OF_ASC_NODE":327.2929,"ARG_OF_PERICENTER":88.133,"MEAN_ANOMALY":271.9993,"EPHEMERIS_TYPE":0,"CLASSIFICATION_TYPE":"U","NORAD_CAT_ID":54145,"ELEMENT_SET_NO":999,"REV_AT_EPOCH":16204,"BSTAR":0.00013744,"MEAN_MOTION_DOT":6.8e-7,"MEAN_MOTION_DDOT":0},{"OBJECT_NAME":"ONEWEB-0531","OBJECT_ID":"2022-138AK","EPOCH":"2026-02-25T02:41:55.311936","MEAN_MOTION":13.20771804,"ECCENTRICITY":0.0002513,"INCLINATION":87.9187,"RA_OF_ASC_NODE":296.8109,"ARG_OF_PERICENTER":73.2298,"MEAN_ANOMALY":286.9111,"EPHEMERIS_TYPE":0,"CLASSIFICATION_TYPE":"U","NORAD_CAT_ID":54146,"ELEMENT_SET_NO":999,"REV_AT_EPOCH":16451,"BSTAR":0.00013991,"MEAN_MOTION_DOT":7.0e-7,"MEAN_MOTION_DDOT":0},{"OBJECT_NAME":"ONEWEB-0535","OBJECT_ID":"2022-138AL","EPOCH":"2026-02-25T04:10:08.766912","MEAN_MOTION":13.19725463,"ECCENTRICITY":0.0001939,"INCLINATION":87.9249,"RA_OF_ASC_NODE":327.2609,"ARG_OF_PERICENTER":69.1525,"MEAN_ANOMALY":290.9815,"EPHEMERIS_TYPE":0,"CLASSIFICATION_TYPE":"U","NORAD_CAT_ID":54147,"ELEMENT_SET_NO":999,"REV_AT_EPOCH":16206,"BSTAR":0.00018801,"MEAN_MOTION_DOT":8.8e-7,"MEAN_MOTION_DDOT":0},{"OBJECT_NAME":"ONEWEB-0536","OBJECT_ID":"2022-138AM","EPOCH":"2026-02-25T04:12:49.900320","MEAN_MOTION":13.20771741,"ECCENTRICITY":0.0002643,"INCLINATION":87.9181,"RA_OF_ASC_NODE":296.8343,"ARG_OF_PERICENTER":75.6405,"MEAN_ANOMALY":284.5022,"EPHEMERIS_TYPE":0,"CLASSIFICATION_TYPE":"U","NORAD_CAT_ID":54148,"ELEMENT_SET_NO":999,"REV_AT_EPOCH":16451,"BSTAR":0.00022051,"MEAN_MOTION_DOT":1.03e-6,"MEAN_MOTION_DDOT":0}]
